start=new Date('2022-02-24T00:00:00.000Z').valueOf();
sats=[{"MEAN_ANOMALY":"48.9288","REF_FRAME":"TEME","CENTER_NAME":"EARTH","NORAD_CAT_ID":"48880","OBJECT_NAME":"STARLINK-3004","COUNTRY_CODE":"US","OBJECT_TYPE":"PAYLOAD","EPHEMERIS_TYPE":"0","DECAY_DATE":null,"ECCENTRICITY":"0.00040200","OBJECT_ID":"2021-059B","TIME_SYSTEM":"UTC","MEAN_ELEMENT_THEORY":"SGP4","GP_ID":"196747554","ELEMENT_SET_NO":"999","INCLINATION":"97.5266","FILE":"3316483","LAUNCH_DATE":"2021-06-30","TLE_LINE1":"1 48880U 21059B   22054.91667824 -.00065221  00000-0 -34229-2 0  9991","MEAN_MOTION_DDOT":"0.0000000000000","MEAN_MOTION_DOT":"-0.00065221","EPOCH":"2022-02-23T22:00:00.999936","TLE_LINE2":"2 48880  97.5266 186.5246 0004020 193.8010  48.9288 15.16020044 37322","APOAPSIS":"520.658","SITE":"AFETR","RCS_SIZE":"LARGE","RA_OF_ASC_NODE":"186.5246","MEAN_MOTION":"15.16020044","CLASSIFICATION_TYPE":"U","ARG_OF_PERICENTER":"193.8010","REV_AT_EPOCH":"3732","PERIAPSIS":"515.113","PERIOD":"94.986","SEMIMAJOR_AXIS":"6896.021","BSTAR":"-0.00342290000000"},{"BSTAR":"-0.00328120000000","SEMIMAJOR_AXIS":"6896.006","PERIOD":"94.985","PERIAPSIS":"514.675","REV_AT_EPOCH":"3732","CLASSIFICATION_TYPE":"U","ARG_OF_PERICENTER":"186.3565","MEAN_MOTION":"15.16024954","RA_OF_ASC_NODE":"186.5377","RCS_SIZE":"LARGE","SITE":"AFETR","APOAPSIS":"521.066","TLE_LINE2":"2 48881  97.5271 186.5377 0004634 186.3565  48.4211 15.16024954 37322","MEAN_MOTION_DOT":"-0.00062560","EPOCH":"2022-02-23T22:00:00.999936","MEAN_MOTION_DDOT":"0.0000000000000","TLE_LINE1":"1 48881U 21059C   22054.91667824 -.00062560  00000-0 -32812-2 0  9991","LAUNCH_DATE":"2021-06-30","FILE":"3316478","INCLINATION":"97.5271","ELEMENT_SET_NO":"999","GP_ID":"196747652","MEAN_ELEMENT_THEORY":"SGP4","TIME_SYSTEM":"UTC","OBJECT_ID":"2021-059C","ECCENTRICITY":"0.00046340","DECAY_DATE":null,"COUNTRY_CODE":"US","OBJECT_TYPE":"PAYLOAD","EPHEMERIS_TYPE":"0","OBJECT_NAME":"STARLINK-3005","NORAD_CAT_ID":"48881","CENTER_NAME":"EARTH","REF_FRAME":"TEME","MEAN_ANOMALY":"48.4211"},{"DECAY_DATE":null,"COUNTRY_CODE":"US","OBJECT_TYPE":"PAYLOAD","EPHEMERIS_TYPE":"0","OBJECT_NAME":"STARLINK-3096","NORAD_CAT_ID":"49131","CENTER_NAME":"EARTH","REF_FRAME":"TEME","MEAN_ANOMALY":"296.5995","LAUNCH_DATE":"2021-09-14","FILE":"3316866","INCLINATION":"70.0002","GP_ID":"196757187","ELEMENT_SET_NO":"999","MEAN_ELEMENT_THEORY":"SGP4","TIME_SYSTEM":"UTC","OBJECT_ID":"2021-082B","ECCENTRICITY":"0.00034720","MEAN_MOTION":"15.69293555","RA_OF_ASC_NODE":"29.3104","RCS_SIZE":"LARGE","SITE":"AFWTR","APOAPSIS":"363.261","TLE_LINE2":"2 49131  70.0002  29.3104 0003472 281.4523 296.5995 15.69293555 25641","MEAN_MOTION_DOT":"0.00650141","EPOCH":"2022-02-23T22:00:00.999936","MEAN_MOTION_DDOT":"0.0000000000000","TLE_LINE1":"1 49131U 21082B   22054.91667824  .00650141  00000-0  51319-2 0  9995","BSTAR":"0.00513190000000","SEMIMAJOR_AXIS":"6739.056","PERIOD":"91.761","PERIAPSIS":"358.581","REV_AT_EPOCH":"2564","CLASSIFICATION_TYPE":"U","ARG_OF_PERICENTER":"281.4523"},{"ECCENTRICITY":"0.00033110","TIME_SYSTEM":"UTC","OBJECT_ID":"2021-082C","INCLINATION":"70.0010","FILE":"3317219","LAUNCH_DATE":"2021-09-14","GP_ID":"196788539","ELEMENT_SET_NO":"999","MEAN_ELEMENT_THEORY":"SGP4","REF_FRAME":"TEME","CENTER_NAME":"EARTH","MEAN_ANOMALY":"355.6460","OBJECT_TYPE":"PAYLOAD","COUNTRY_CODE":"US","EPHEMERIS_TYPE":"0","DECAY_DATE":null,"NORAD_CAT_ID":"49132","OBJECT_NAME":"STARLINK-3090","PERIAPSIS":"569.856","CLASSIFICATION_TYPE":"U","ARG_OF_PERICENTER":"282.0147","REV_AT_EPOCH":"357","PERIOD":"96.109","BSTAR":"0.00416940000000","SEMIMAJOR_AXIS":"6950.293","MEAN_MOTION_DOT":"0.00049971","EPOCH":"2022-02-23T22:00:00.999936","TLE_LINE1":"1 49132U 21082C   22054.91667824  .00049971  00000-0  41694-2 0  9994","MEAN_MOTION_DDOT":"0.0000000000000","RA_OF_ASC_NODE":"52.8749","MEAN_MOTION":"14.98297748","APOAPSIS":"574.459","TLE_LINE2":"2 49132  70.0010  52.8749 0003311 282.0147 355.6460 14.98297748  3579","RCS_SIZE":"LARGE","SITE":"AFWTR"},{"NORAD_CAT_ID":"49133","OBJECT_NAME":"STARLINK-3077","COUNTRY_CODE":"US","EPHEMERIS_TYPE":"0","OBJECT_TYPE":"PAYLOAD","DECAY_DATE":null,"MEAN_ANOMALY":"28.2315","REF_FRAME":"TEME","CENTER_NAME":"EARTH","GP_ID":"196787287","ELEMENT_SET_NO":"999","MEAN_ELEMENT_THEORY":"SGP4","INCLINATION":"70.0015","FILE":"3317219","LAUNCH_DATE":"2021-09-14","ECCENTRICITY":"0.00032330","TIME_SYSTEM":"UTC","OBJECT_ID":"2021-082D","APOAPSIS":"574.347","TLE_LINE2":"2 49133  70.0015  52.8775 0003233 275.1188  28.2315 14.98316513  3579","RCS_SIZE":"LARGE","SITE":"AFWTR","RA_OF_ASC_NODE":"52.8775","MEAN_MOTION":"14.98316513","TLE_LINE1":"1 49133U 21082D   22054.91667824  .00051520  00000-0  42954-2 0  9998","MEAN_MOTION_DDOT":"0.0000000000000","EPOCH":"2022-02-23T22:00:00.999936","MEAN_MOTION_DOT":"0.00051520","PERIOD":"96.108","BSTAR":"0.00429540000000","SEMIMAJOR_AXIS":"6950.235","CLASSIFICATION_TYPE":"U","ARG_OF_PERICENTER":"275.1188","REV_AT_EPOCH":"357","PERIAPSIS":"569.853"},{"PERIOD":"96.109","SEMIMAJOR_AXIS":"6950.273","BSTAR":"0.00440790000000","PERIAPSIS":"569.966","CLASSIFICATION_TYPE":"U","ARG_OF_PERICENTER":"279.5921","REV_AT_EPOCH":"357","RA_OF_ASC_NODE":"52.8698","MEAN_MOTION":"14.98304096","TLE_LINE2":"2 49134  70.0001  52.8698 0003125 279.5921  49.4635 14.98304096  3575","APOAPSIS":"574.310","SITE":"AFWTR","RCS_SIZE":"LARGE","EPOCH":"2022-02-23T22:00:00.999936","MEAN_MOTION_DOT":"0.00052865","TLE_LINE1":"1 49134U 21082E   22054.91667824  .00052865  00000-0  44079-2 0  9992","MEAN_MOTION_DDOT":"0.0000000000000","INCLINATION":"70.0001","FILE":"3317219","LAUNCH_DATE":"2021-09-14","MEAN_ELEMENT_THEORY":"SGP4","ELEMENT_SET_NO":"999","GP_ID":"196787537","ECCENTRICITY":"0.00031250","OBJECT_ID":"2021-082E","TIME_SYSTEM":"UTC","COUNTRY_CODE":"US","OBJECT_TYPE":"PAYLOAD","EPHEMERIS_TYPE":"0","DECAY_DATE":null,"NORAD_CAT_ID":"49134","OBJECT_NAME":"STARLINK-3078","REF_FRAME":"TEME","CENTER_NAME":"EARTH","MEAN_ANOMALY":"49.4635"},{"OBJECT_ID":"2021-082F","TIME_SYSTEM":"UTC","ECCENTRICITY":"0.00034210","LAUNCH_DATE":"2021-09-14","FILE":"3316866","INCLINATION":"70.0014","MEAN_ELEMENT_THEORY":"SGP4","GP_ID":"196757195","ELEMENT_SET_NO":"999","CENTER_NAME":"EARTH","REF_FRAME":"TEME","MEAN_ANOMALY":"304.0676","DECAY_DATE":null,"EPHEMERIS_TYPE":"0","COUNTRY_CODE":"US","OBJECT_TYPE":"PAYLOAD","OBJECT_NAME":"STARLINK-3073","NORAD_CAT_ID":"49135","PERIAPSIS":"357.308","REV_AT_EPOCH":"2565","CLASSIFICATION_TYPE":"U","ARG_OF_PERICENTER":"280.2580","SEMIMAJOR_AXIS":"6737.748","BSTAR":"0.00046610000000","PERIOD":"91.734","MEAN_MOTION_DOT":"0.00055803","EPOCH":"2022-02-23T22:00:00.999936","MEAN_MOTION_DDOT":"0.0000000000000","TLE_LINE1":"1 49135U 21082F   22054.91667824  .00055803  00000-0  46610-3 0  9992","MEAN_MOTION":"15.69750350","RA_OF_ASC_NODE":"29.2929","SITE":"AFWTR","RCS_SIZE":"LARGE","TLE_LINE2":"2 49135  70.0014  29.2929 0003421 280.2580 304.0676 15.69750350 25659","APOAPSIS":"361.918"},{"MEAN_MOTION_DOT":"-0.00658725","EPOCH":"2022-02-23T22:00:00.999936","TLE_LINE1":"1 49136U 21082G   22054.91667824 -.00658725  00000-0 -30104-1 0  9996","MEAN_MOTION_DDOT":"0.0000000000000","RA_OF_ASC_NODE":"32.6479","MEAN_MOTION":"15.23007812","TLE_LINE2":"2 49136  70.0001  32.6479 0003349 281.2663  18.6615 15.23007812 25576","APOAPSIS":"499.079","SITE":"AFWTR","RCS_SIZE":"LARGE","PERIAPSIS":"494.474","CLASSIFICATION_TYPE":"U","ARG_OF_PERICENTER":"281.2663","REV_AT_EPOCH":"2557","PERIOD":"94.550","SEMIMAJOR_AXIS":"6874.911","BSTAR":"-0.03010400000000","REF_FRAME":"TEME","CENTER_NAME":"EARTH","MEAN_ANOMALY":"18.6615","COUNTRY_CODE":"US","OBJECT_TYPE":"PAYLOAD","EPHEMERIS_TYPE":"0","DECAY_DATE":null,"NORAD_CAT_ID":"49136","OBJECT_NAME":"STARLINK-3084","ECCENTRICITY":"0.00033490","OBJECT_ID":"2021-082G","TIME_SYSTEM":"UTC","FILE":"3316866","INCLINATION":"70.0001","LAUNCH_DATE":"2021-09-14","MEAN_ELEMENT_THEORY":"SGP4","GP_ID":"196757515","ELEMENT_SET_NO":"999"},{"GP_ID":"196757190","ELEMENT_SET_NO":"999","MEAN_ELEMENT_THEORY":"SGP4","LAUNCH_DATE":"2021-09-14","FILE":"3316866","INCLINATION":"70.0001","TIME_SYSTEM":"UTC","OBJECT_ID":"2021-082H","ECCENTRICITY":"0.00033860","OBJECT_NAME":"STARLINK-3055","NORAD_CAT_ID":"49137","DECAY_DATE":null,"COUNTRY_CODE":"US","OBJECT_TYPE":"PAYLOAD","EPHEMERIS_TYPE":"0","MEAN_ANOMALY":"140.2934","CENTER_NAME":"EARTH","REF_FRAME":"TEME","BSTAR":"-0.03185400000000","SEMIMAJOR_AXIS":"6880.938","PERIOD":"94.674","REV_AT_EPOCH":"2556","ARG_OF_PERICENTER":"279.0889","CLASSIFICATION_TYPE":"U","PERIAPSIS":"500.473","RCS_SIZE":"LARGE","SITE":"AFWTR","APOAPSIS":"505.133","TLE_LINE2":"2 49137  70.0001  32.6778 0003386 279.0889 140.2934 15.21007253 25567","MEAN_MOTION":"15.21007253","RA_OF_ASC_NODE":"32.6778","MEAN_MOTION_DDOT":"0.0000000000000","TLE_LINE1":"1 49137U 21082H   22054.91667824 -.00657148  00000-0 -31854-1 0  9998","MEAN_MOTION_DOT":"-0.00657148","EPOCH":"2022-02-23T22:00:00.999936"},{"EPHEMERIS_TYPE":"0","COUNTRY_CODE":"US","OBJECT_TYPE":"PAYLOAD","DECAY_DATE":null,"NORAD_CAT_ID":"49138","OBJECT_NAME":"STARLINK-3058","REF_FRAME":"TEME","CENTER_NAME":"EARTH","MEAN_ANOMALY":"82.5085","INCLINATION":"70.0007","FILE":"3317219","LAUNCH_DATE":"2021-09-14","MEAN_ELEMENT_THEORY":"SGP4","GP_ID":"196787037","ELEMENT_SET_NO":"999","ECCENTRICITY":"0.00031770","OBJECT_ID":"2021-082J","TIME_SYSTEM":"UTC","RA_OF_ASC_NODE":"52.8747","MEAN_MOTION":"14.98306727","TLE_LINE2":"2 49138  70.0007  52.8747 0003177 272.2966  82.5085 14.98306727  3576","APOAPSIS":"574.338","SITE":"AFWTR","RCS_SIZE":"LARGE","MEAN_MOTION_DOT":"0.00054061","EPOCH":"2022-02-23T22:00:00.999936","TLE_LINE1":"1 49138U 21082J   22054.91667824  .00054061  00000-0  45064-2 0  9991","MEAN_MOTION_DDOT":"0.0000000000000","PERIOD":"96.108","SEMIMAJOR_AXIS":"6950.265","BSTAR":"0.00450640000000","PERIAPSIS":"569.922","CLASSIFICATION_TYPE":"U","ARG_OF_PERICENTER":"272.2966","REV_AT_EPOCH":"357"}];
